start=new Date('2022-09-24T00:00:00.000Z').valueOf();
sats=[{"EPOCH":"2022-09-23T20:00:01.999872","CENTER_NAME":"EARTH","FILE":"3581681","COUNTRY_CODE":"US","BSTAR":"-0.00048434000000","EPHEMERIS_TYPE":"0","APOAPSIS":"350.524","MEAN_MOTION_DOT":"-0.00068297","NORAD_CAT_ID":"53704","ELEMENT_SET_NO":"999","LAUNCH_DATE":"2022-09-05","CLASSIFICATION_TYPE":"U","PERIOD":"91.528","RCS_SIZE":"LARGE","INCLINATION":"53.2149","TIME_SYSTEM":"UTC","OBJECT_ID":"2022-107E","SEMIMAJOR_AXIS":"6727.649","GP_ID":"213336643","SITE":"AFETR","REF_FRAME":"TEME","RA_OF_ASC_NODE":"180.3765","OBJECT_NAME":"STARLINK-4714","PERIAPSIS":"348.504","DECAY_DATE":null,"MEAN_ANOMALY":"275.4836","MEAN_ELEMENT_THEORY":"SGP4","TLE_LINE2":"2 53704  53.2149 180.3765 0001501 127.9326 275.4836 15.73286447  1308","MEAN_MOTION":"15.73286447","ARG_OF_PERICENTER":"127.9326","REV_AT_EPOCH":"130","MEAN_MOTION_DDOT":"0.0000000000000","TLE_LINE1":"1 53704U 22107E   22266.83335648 -.00068297  00000-0 -48434-3 0  9999","ECCENTRICITY":"0.00015010","OBJECT_TYPE":"PAYLOAD"},{"TLE_LINE1":"1 53705U 22107F   22266.83335648 -.00067099  00000-0 -47608-3 0  9991","OBJECT_TYPE":"PAYLOAD","ECCENTRICITY":"0.00016810","MEAN_MOTION_DDOT":"0.0000000000000","REV_AT_EPOCH":"130","ARG_OF_PERICENTER":"127.6363","MEAN_MOTION":"15.73267071","MEAN_ELEMENT_THEORY":"SGP4","TLE_LINE2":"2 53705  53.2148 180.3749 0001681 127.6363 276.3921 15.73267071  1304","MEAN_ANOMALY":"276.3921","DECAY_DATE":null,"PERIAPSIS":"348.438","OBJECT_NAME":"STARLINK-4717","RA_OF_ASC_NODE":"180.3749","REF_FRAME":"TEME","SITE":"AFETR","GP_ID":"213337387","SEMIMAJOR_AXIS":"6727.704","OBJECT_ID":"2022-107F","INCLINATION":"53.2148","TIME_SYSTEM":"UTC","RCS_SIZE":"LARGE","CLASSIFICATION_TYPE":"U","PERIOD":"91.529","LAUNCH_DATE":"2022-09-05","ELEMENT_SET_NO":"999","NORAD_CAT_ID":"53705","MEAN_MOTION_DOT":"-0.00067099","APOAPSIS":"350.700","EPHEMERIS_TYPE":"0","BSTAR":"-0.00047608000000","COUNTRY_CODE":"US","FILE":"3581681","CENTER_NAME":"EARTH","EPOCH":"2022-09-23T20:00:01.999872"},{"GP_ID":"213337223","SITE":"AFETR","SEMIMAJOR_AXIS":"6727.870","RCS_SIZE":"LARGE","OBJECT_ID":"2022-107G","INCLINATION":"53.2148","TIME_SYSTEM":"UTC","RA_OF_ASC_NODE":"180.3738","PERIAPSIS":"348.716","OBJECT_NAME":"STARLINK-4716","REF_FRAME":"TEME","ARG_OF_PERICENTER":"127.2233","DECAY_DATE":null,"MEAN_ANOMALY":"277.3763","MEAN_MOTION":"15.73208904","MEAN_ELEMENT_THEORY":"SGP4","TLE_LINE2":"2 53706  53.2148 180.3738 0001514 127.2233 277.3763 15.73208904  1305","MEAN_MOTION_DDOT":"0.0000000000000","TLE_LINE1":"1 53706U 22107G   22266.83335648  .00037062  00000-0  26722-3 0  9991","OBJECT_TYPE":"PAYLOAD","ECCENTRICITY":"0.00015140","REV_AT_EPOCH":"130","CENTER_NAME":"EARTH","FILE":"3581681","EPOCH":"2022-09-23T20:00:01.999872","EPHEMERIS_TYPE":"0","APOAPSIS":"350.753","BSTAR":"0.00026722000000","COUNTRY_CODE":"US","NORAD_CAT_ID":"53706","ELEMENT_SET_NO":"999","MEAN_MOTION_DOT":"0.00037062","CLASSIFICATION_TYPE":"U","PERIOD":"91.533","LAUNCH_DATE":"2022-09-05"},{"ARG_OF_PERICENTER":"122.5409","DECAY_DATE":null,"MEAN_ANOMALY":"286.2506","MEAN_MOTION":"15.73207020","TLE_LINE2":"2 53707  53.2147 180.3652 0001707 122.5409 286.2506 15.73207020  1309","MEAN_ELEMENT_THEORY":"SGP4","MEAN_MOTION_DDOT":"0.0000000000000","TLE_LINE1":"1 53707U 22107H   22266.83335648  .00035676  00000-0  25745-3 0  9995","OBJECT_TYPE":"PAYLOAD","ECCENTRICITY":"0.00017070","REV_AT_EPOCH":"130","GP_ID":"213336480","SEMIMAJOR_AXIS":"6727.875","SITE":"AFETR","RCS_SIZE":"LARGE","OBJECT_ID":"2022-107H","INCLINATION":"53.2147","TIME_SYSTEM":"UTC","RA_OF_ASC_NODE":"180.3652","PERIAPSIS":"348.592","OBJECT_NAME":"STARLINK-4667","REF_FRAME":"TEME","NORAD_CAT_ID":"53707","ELEMENT_SET_NO":"999","MEAN_MOTION_DOT":"0.00035676","CLASSIFICATION_TYPE":"U","PERIOD":"91.533","LAUNCH_DATE":"2022-09-05","CENTER_NAME":"EARTH","FILE":"3581681","EPOCH":"2022-09-23T20:00:01.999872","EPHEMERIS_TYPE":"0","APOAPSIS":"350.889","BSTAR":"0.00025745000000","COUNTRY_CODE":"US"},{"PERIAPSIS":"348.579","OBJECT_NAME":"STARLINK-4694","RA_OF_ASC_NODE":"180.3689","REF_FRAME":"TEME","GP_ID":"213337059","SITE":"AFETR","SEMIMAJOR_AXIS":"6727.674","OBJECT_ID":"2022-107J","INCLINATION":"53.2146","TIME_SYSTEM":"UTC","RCS_SIZE":"LARGE","TLE_LINE1":"1 53708U 22107J   22266.83335648 -.00043076  00000-0 -30305-3 0  9999","OBJECT_TYPE":"PAYLOAD","ECCENTRICITY":"0.00014260","MEAN_MOTION_DDOT":"0.0000000000000","REV_AT_EPOCH":"130","ARG_OF_PERICENTER":"121.5644","MEAN_MOTION":"15.73277752","MEAN_ELEMENT_THEORY":"SGP4","TLE_LINE2":"2 53708  53.2146 180.3689 0001426 121.5644 285.4397 15.73277752  1305","DECAY_DATE":null,"MEAN_ANOMALY":"285.4397","APOAPSIS":"350.498","EPHEMERIS_TYPE":"0","BSTAR":"-0.00030305000000","COUNTRY_CODE":"US","FILE":"3581681","CENTER_NAME":"EARTH","EPOCH":"2022-09-23T20:00:01.999872","CLASSIFICATION_TYPE":"U","PERIOD":"91.529","LAUNCH_DATE":"2022-09-05","ELEMENT_SET_NO":"999","NORAD_CAT_ID":"53708","MEAN_MOTION_DOT":"-0.00043076"},{"BSTAR":"-0.00024539000000","COUNTRY_CODE":"US","APOAPSIS":"350.554","EPHEMERIS_TYPE":"0","EPOCH":"2022-09-23T20:00:01.999872","FILE":"3581681","CENTER_NAME":"EARTH","CLASSIFICATION_TYPE":"U","PERIOD":"91.529","LAUNCH_DATE":"2022-09-05","MEAN_MOTION_DOT":"-0.00035014","ELEMENT_SET_NO":"999","NORAD_CAT_ID":"53709","REF_FRAME":"TEME","PERIAPSIS":"348.591","OBJECT_NAME":"STARLINK-4685","RA_OF_ASC_NODE":"180.3801","OBJECT_ID":"2022-107K","INCLINATION":"53.2148","TIME_SYSTEM":"UTC","RCS_SIZE":"LARGE","SITE":"AFETR","GP_ID":"213337627","SEMIMAJOR_AXIS":"6727.707","REV_AT_EPOCH":"130","TLE_LINE1":"1 53709U 22107K   22266.83335648 -.00035014  00000-0 -24539-3 0  9995","OBJECT_TYPE":"PAYLOAD","ECCENTRICITY":"0.00014590","MEAN_MOTION_DDOT":"0.0000000000000","MEAN_MOTION":"15.73265905","MEAN_ELEMENT_THEORY":"SGP4","TLE_LINE2":"2 53709  53.2148 180.3801 0001459 136.8047 264.8596 15.73265905  1305","DECAY_DATE":null,"MEAN_ANOMALY":"264.8596","ARG_OF_PERICENTER":"136.8047"},{"SEMIMAJOR_AXIS":"6674.560","GP_ID":"213337463","SITE":"AFETR","RCS_SIZE":"MEDIUM","INCLINATION":"53.2130","TIME_SYSTEM":"UTC","OBJECT_ID":"2022-107L","RA_OF_ASC_NODE":"178.7688","OBJECT_NAME":"STARLINK-4696","PERIAPSIS":"291.894","REF_FRAME":"TEME","ARG_OF_PERICENTER":"331.5709","MEAN_ANOMALY":"134.2674","DECAY_DATE":null,"MEAN_ELEMENT_THEORY":"SGP4","TLE_LINE2":"2 53710  53.2130 178.7688 0006789 331.5709 134.2674 15.92094384  1301","MEAN_MOTION":"15.92094384","MEAN_MOTION_DDOT":"0.0000187800000","ECCENTRICITY":"0.00067890","TLE_LINE1":"1 53710U 22107L   22266.83335648  .00143287  18780-4  42857-3 0  9998","OBJECT_TYPE":"PAYLOAD","REV_AT_EPOCH":"130","CENTER_NAME":"EARTH","FILE":"3581681","EPOCH":"2022-09-23T20:00:01.999872","EPHEMERIS_TYPE":"0","APOAPSIS":"300.956","COUNTRY_CODE":"US","BSTAR":"0.00042857000000","NORAD_CAT_ID":"53710","ELEMENT_SET_NO":"999","MEAN_MOTION_DOT":"0.00143287","LAUNCH_DATE":"2022-09-05","CLASSIFICATION_TYPE":"U","PERIOD":"90.447"},{"REF_FRAME":"TEME","PERIAPSIS":"348.757","OBJECT_NAME":"STARLINK-4627","RA_OF_ASC_NODE":"180.3812","OBJECT_ID":"2022-107M","INCLINATION":"53.2148","TIME_SYSTEM":"UTC","RCS_SIZE":"LARGE","GP_ID":"213336895","SITE":"AFETR","SEMIMAJOR_AXIS":"6727.921","REV_AT_EPOCH":"130","TLE_LINE1":"1 53711U 22107M   22266.83335648  .00020441  00000-0  14976-3 0  9998","ECCENTRICITY":"0.00015300","OBJECT_TYPE":"PAYLOAD","MEAN_MOTION_DDOT":"0.0000000000000","MEAN_MOTION":"15.73190978","TLE_LINE2":"2 53711  53.2148 180.3812 0001530 127.7399 273.3414 15.73190978  1300","MEAN_ELEMENT_THEORY":"SGP4","MEAN_ANOMALY":"273.3414","DECAY_DATE":null,"ARG_OF_PERICENTER":"127.7399","BSTAR":"0.00014976000000","COUNTRY_CODE":"US","APOAPSIS":"350.815","EPHEMERIS_TYPE":"0","EPOCH":"2022-09-23T20:00:01.999872","FILE":"3581681","CENTER_NAME":"EARTH","CLASSIFICATION_TYPE":"U","PERIOD":"91.534","LAUNCH_DATE":"2022-09-05","MEAN_MOTION_DOT":"0.00020441","ELEMENT_SET_NO":"999","NORAD_CAT_ID":"53711"},{"OBJECT_TYPE":"PAYLOAD","TLE_LINE1":"1 53712U 22107N   22266.83335648  .00039174  00000-0  28205-3 0  9992","ECCENTRICITY":"0.00018110","MEAN_MOTION_DDOT":"0.0000000000000","REV_AT_EPOCH":"130","ARG_OF_PERICENTER":"127.1758","MEAN_ELEMENT_THEORY":"SGP4","TLE_LINE2":"2 53712  53.2149 180.3788 0001811 127.1758 275.0556 15.73214330  1304","MEAN_MOTION":"15.73214330","MEAN_ANOMALY":"275.0556","DECAY_DATE":null,"OBJECT_NAME":"STARLINK-4683","PERIAPSIS":"348.501","RA_OF_ASC_NODE":"180.3788","REF_FRAME":"TEME","SITE":"AFETR","GP_ID":"213336644","SEMIMAJOR_AXIS":"6727.854","INCLINATION":"53.2149","TIME_SYSTEM":"UTC","OBJECT_ID":"2022-107N","RCS_SIZE":"LARGE","LAUNCH_DATE":"2022-09-05","CLASSIFICATION_TYPE":"U","PERIOD":"91.532","ELEMENT_SET_NO":"999","NORAD_CAT_ID":"53712","MEAN_MOTION_DOT":"0.00039174","APOAPSIS":"350.938","EPHEMERIS_TYPE":"0","COUNTRY_CODE":"US","BSTAR":"0.00028205000000","FILE":"3581681","CENTER_NAME":"EARTH","EPOCH":"2022-09-23T20:00:01.999872"},{"ARG_OF_PERICENTER":"135.0123","MEAN_ANOMALY":"264.8664","DECAY_DATE":null,"MEAN_ELEMENT_THEORY":"SGP4","TLE_LINE2":"2 53713  53.2147 180.3837 0001437 135.0123 264.8664 15.73205121  1300","MEAN_MOTION":"15.73205121","MEAN_MOTION_DDOT":"0.0000000000000","TLE_LINE1":"1 53713U 22107P   22266.83335648  .00022282  00000-0  16272-3 0  9996","OBJECT_TYPE":"PAYLOAD","ECCENTRICITY":"0.00014370","REV_AT_EPOCH":"130","GP_ID":"213337388","SITE":"AFETR","SEMIMAJOR_AXIS":"6727.881","RCS_SIZE":"LARGE","INCLINATION":"53.2147","TIME_SYSTEM":"UTC","OBJECT_ID":"2022-107P","RA_OF_ASC_NODE":"180.3837","OBJECT_NAME":"STARLINK-4698","PERIAPSIS":"348.779","REF_FRAME":"TEME","NORAD_CAT_ID":"53713","ELEMENT_SET_NO":"999","MEAN_MOTION_DOT":"0.00022282","LAUNCH_DATE":"2022-09-05","PERIOD":"91.533","CLASSIFICATION_TYPE":"U","CENTER_NAME":"EARTH","FILE":"3581681","EPOCH":"2022-09-23T20:00:01.999872","EPHEMERIS_TYPE":"0","APOAPSIS":"350.712","COUNTRY_CODE":"US","BSTAR":"0.00016272000000"}];
